STARLINK-32185          
1 60341U 24136N   26068.28404020  .00003511  00000+0  13056-3 0  9999
2 60341  53.1604  77.4677 0001635  79.0304 281.0880 15.30217520 89607
NUSAT-48 (HENRIETTA LE*)
1 60498U 24149AG  26068.80506098  .00012988  00000+0  45212-3 0  9999
2 60498  97.3923 150.8264 0002754 263.3026  96.7901 15.29812597 86946
